NORAD_CAT_ID,OBJECT_NAME,OBJECT_TYPE,EPOCH,MEAN_MOTION,ECCENTRICITY,INCLINATION,RA_OF_ASC_NODE,ARG_OF_PERICENTER,MEAN_ANOMALY,BSTAR,MEAN_MOTION_DOT,MEAN_MOTION_DDOT,TLE_LINE0,TLE_LINE1,TLE_LINE2,SEMIMAJOR_AXIS,PERIOD,APOGEE,PERIGEE,DECAYED
53162.0,STARLINK-4114,PAYLOAD,2023-01-26 12:13:17,15.08843419,0.0001117,53.2179,233.6107,88.7365,271.3755,8.190000000000001e-05,1.016e-05,0.0,0 STARLINK-4114,1 53162U 22083AG  23026.50923494  .00001016  00000-0  81900-4 0  9991,2 53162  53.2179 233.6107 0001117  88.7365 271.3755 15.08843419 29537,6917.87,95.437,540.508,538.962,0.0
53162.0,STARLINK-4114,PAYLOAD,2023-01-26 20:10:13,15.088485,0.0001215,53.2179,232.1239,87.1099,273.0033,6.9767e-05,8.23e-06,0.0,0 STARLINK-4114,1 53162U 22083AG  23026.84043179  .00000823  00000-0  69767-4 0  9993,2 53162  53.2179 232.1239 0001215  87.1099 273.0033 15.08848500 30214,6917.854,95.437,540.56,538.879,0.0
53162.0,STARLINK-4114,PAYLOAD,2023-01-27 20:01:01,15.08828036,0.0001117,53.2178,227.6626,89.346,270.766,0.00020644,2.998e-05,0.0,0 STARLINK-4114,1 53162U 22083AG  23027.83404295  .00002998  00000-0  20644-3 0  9998,2 53162  53.2178 227.6626 0001117  89.3460 270.7660 15.08828036 30367,6917.917,95.438,540.555,539.009,0.0
53162.0,STARLINK-4114,PAYLOAD,2023-01-27 23:11:47,15.08837377,0.0001144,53.2177,227.0679,86.0979,274.0144,5.3595e-05,5.65e-06,0.0,0 STARLINK-4114,1 53162U 22083AG  23027.96651943  .00000565  00000-0  53595-4 0  9996,2 53162  53.2177 227.0679 0001144  86.0979 274.0144 15.08837377 30381,6917.888,95.438,540.545,538.962,0.0
53162.0,STARLINK-4114,PAYLOAD,2023-01-28 13:30:15,15.08839551,0.0001192,53.2181,224.3909,102.6617,257.4508,7.9603e-06,-1.61e-06,0.0,0 STARLINK-4114,1 53162U 22083AG  23028.56267924 -.00000161  00000-0  79603-5 0  9997,2 53162  53.2181 224.3909 0001192 102.6617 257.4508 15.08839551 29843,6917.882,95.438,540.571,538.922,0.0
53162.0,STARLINK-4114,PAYLOAD,2023-01-28 21:27:10,15.08843368,0.0001034,53.2174,222.9054,82.4714,277.6396,4.2885e-05,3.95e-06,0.0,0 STARLINK-4114,1 53162U 22083AG  23028.89387572  .00000395  00000-0  42885-4 0  9994,2 53162  53.2174 222.9054 0001034  82.4714 277.6396 15.08843368 29893,6917.87,95.437,540.45,539.02,0.0
53162.0,STARLINK-4114,PAYLOAD,2023-01-29 05:24:06,15.08840283,0.000102,53.2173,221.4184,80.5879,279.5228,7.5191e-06,-1.68e-06,0.0,0 STARLINK-4114,1 53162U 22083AG  23029.22507824 -.00000168  00000-0  75191-5 0  9992,2 53162  53.2173 221.4184 0001020  80.5879 279.5228 15.08840283 30571,6917.88,95.438,540.45,539.039,0.0
53162.0,STARLINK-4114,PAYLOAD,2023-01-29 21:17:58,15.08836437,0.0001016,53.2174,218.4449,83.9203,276.1905,3.7148e-05,3.03e-06,0.0,0 STARLINK-4114,1 53162U 22083AG  23029.88748139  .00000303  00000-0  37148-4 0  9999,2 53162  53.2174 218.4449 0001016  83.9203 276.1905 15.08836437 30048,6917.891,95.438,540.459,539.053,0.0
53162.0,STARLINK-4114,PAYLOAD,2023-01-30 11:36:26,15.08834674,0.000102,53.2174,215.7689,88.6979,271.413,3.4223e-05,2.57e-06,0.0,0 STARLINK-4114,1 53162U 22083AG  23030.48364378  .00000257  00000-0  34223-4 0  9995,2 53162  53.2174 215.7689 0001020  88.6979 271.4130 15.08834674 30769,6917.897,95.438,540.467,539.056,0.0
53162.0,STARLINK-4114,PAYLOAD,2023-01-30 21:08:45,15.08838719,0.0001027,53.2175,213.9848,87.8953,272.2157,2.2664e-05,7.3e-07,0.0,0 STARLINK-4114,1 53162U 22083AG  23030.88108217  .00000073  00000-0  22664-4 0  9999,2 53162  53.2175 213.9848 0001027  87.8953 272.2157 15.08838719 30196,6917.884,95.438,540.46,539.039,0.0
53162.0,STARLINK-4114,PAYLOAD,2023-01-31 13:02:37,15.088355,0.0001024,53.2177,211.0111,87.6851,272.4258,5.354e-05,5.64e-06,0.0,0 STARLINK-4114,1 53162U 22083AG  23031.54348448  .00000564  00000-0  53540-4 0  9997,2 53162  53.2177 211.0111 0001024  87.6851 272.4258 15.08835500 30292,6917.894,95.438,540.468,539.051,0.0
53162.0,STARLINK-4114,PAYLOAD,2023-01-31 20:59:32,15.08840769,0.0001035,53.2177,209.5242,86.1155,273.9955,6.5211e-05,7.5e-06,0.0,0 STARLINK-4114,1 53162U 22083AG  23031.87468135  .00000750  00000-0  65211-4 0  9994,2 53162  53.2177 209.5242 0001035  86.1155 273.9955 15.08840769 30341,6917.878,95.438,540.459,539.027,0.0
53162.0,STARLINK-4114,PAYLOAD,2023-02-01 11:18:00,15.08841146,0.0001205,53.2175,206.8478,85.7295,274.3835,7.8027e-05,9.54e-06,0.0,0 STARLINK-4114,1 53162U 22083AG  23032.47084113  .00000954  00000-0  78027-4 0  9996,2 53162  53.2175 206.8478 0001205  85.7295 274.3835 15.08841146 30431,6917.877,95.437,540.575,538.908,0.0
53162.0,STARLINK-4114,PAYLOAD,2023-02-02 11:08:48,15.08836881,0.0001292,53.2171,202.3875,85.7205,274.3935,1.7698e-05,-6e-08,0.0,0 STARLINK-4114,1 53162U 22083AG  23033.46444509 -.00000006  00000-0  17698-4 0  9991,2 53162  53.2171 202.3875 0001292  85.7205 274.3935 15.08836881 30583,6917.89,95.438,540.649,538.861,0.0
53162.0,STARLINK-4114,PAYLOAD,2023-02-03 10:59:34,15.08841084,0.0001315,53.2169,197.9281,81.9233,278.1908,-4.1275e-06,-3.54e-06,0.0,0 STARLINK-4114,1 53162U 22083AG  23034.45804385 -.00000354  00000-0 -41275-5 0  9999,2 53162  53.2169 197.9281 0001315  81.9233 278.1908 15.08841084 30735,6917.877,95.437,540.652,538.832,0.0
53162.0,STARLINK-4114,PAYLOAD,2023-02-04 10:50:21,15.08839398,0.0001287,53.2168,193.4662,91.2318,268.8821,8.0813e-05,9.98e-06,0.0,0 STARLINK-4114,1 53162U 22083AG  23035.45164171  .00000998  00000-0  80813-4 0  9994,2 53162  53.2168 193.4662 0001287  91.2318 268.8821 15.08839398 31516,6917.882,95.438,540.638,538.857,0.0
53162.0,STARLINK-4114,PAYLOAD,2023-02-04 14:01:08,15.08840887,0.0001265,53.2168,192.8712,93.805,266.3087,9.0532e-05,1.153e-05,0.0,0 STARLINK-4114,1 53162U 22083AG  23035.58412041  .00001153  00000-0  90532-4 0  9993,2 53162  53.2168 192.8712 0001265  93.8050 266.3087 15.08840887 30906,6917.878,95.437,540.618,538.868,0.0
53162.0,STARLINK-4114,PAYLOAD,2023-02-04 20:22:40,15.08845062,0.0001267,53.2177,191.6828,89.1101,271.0036,0.00011576,1.555e-05,0.0,0 STARLINK-4114,1 53162U 22083AG  23035.84907716  .00001555  00000-0  11576-3 0  9996,2 53162  53.2177 191.6828 0001267  89.1101 271.0036 15.08845062 30949,6917.865,95.437,540.606,538.853,0.0
53162.0,STARLINK-4114,PAYLOAD,2023-02-05 13:51:55,15.08835137,0.0001301,53.2177,188.4118,94.5535,265.5606,7.3596e-06,-1.71e-06,0.0,0 STARLINK-4114,1 53162U 22083AG  23036.57772875 -.00000171  00000-0  73596-5 0  9999,2 53162  53.2177 188.4118 0001301  94.5535 265.5606 15.08835137 31680,6917.895,95.438,540.66,538.86,0.0
53162.0,STARLINK-4114,PAYLOAD,2023-02-05 20:13:28,15.08839251,0.0001369,53.218,187.2222,94.7218,265.393,3.4719e-05,2.65e-06,0.0,0 STARLINK-4114,1 53162U 22083AG  23036.84268580  .00000265  00000-0  34719-4 0  9998,2 53162  53.2180 187.2222 0001369  94.7218 265.3930 15.08839251 31095,6917.883,95.438,540.695,538.801,0.0
53162.0,STARLINK-4114,PAYLOAD,2023-02-06 13:42:42,15.08844399,0.0001195,53.218,183.9515,91.4276,268.6853,2.5875e-05,1.24e-06,0.0,0 STARLINK-4114,1 53162U 22083AG  23037.57132493  .00000124  00000-0  25875-4 0  9999,2 53162  53.2180 183.9515 0001195  91.4276 268.6853 15.08844399 31200,6917.867,95.437,540.559,538.905,0.0
53162.0,STARLINK-4114,PAYLOAD,2023-02-06 18:28:51,15.08850551,0.0001327,53.2186,183.0595,96.6362,263.4782,0.00010407,1.369e-05,0.0,0 STARLINK-4114,1 53162U 22083AG  23037.77003888  .00001369  00000-0  10407-3 0  9992,2 53162  53.2186 183.0595 0001327  96.6362 263.4782 15.08850551 31868,6917.848,95.437,540.631,538.795,0.0
53162.0,STARLINK-4114,PAYLOAD,2023-02-07 10:22:43,15.0883687,0.0001211,53.2185,180.0859,89.4643,270.6488,0.00015591,2.194e-05,0.0,0 STARLINK-4114,1 53162U 22083AG  23038.43244712  .00002194  00000-0  15591-3 0  9995,2 53162  53.2185 180.0859 0001211  89.4643 270.6488 15.08836870 31963,6917.89,95.438,540.593,538.917,0.0
53162.0,STARLINK-4114,PAYLOAD,2023-02-07 13:33:29,15.08839265,0.0001208,53.2188,179.4912,89.9175,270.1956,0.00017267,2.461e-05,0.0,0 STARLINK-4114,1 53162U 22083AG  23038.56492569  .00002461  00000-0  17267-3 0  9993,2 53162  53.2188 179.4912 0001208  89.9175 270.1956 15.08839265 31358,6917.883,95.438,540.583,538.912,0.0
53162.0,STARLINK-4114,PAYLOAD,2023-02-07 18:19:38,15.08847697,0.0001392,53.2189,178.597,82.081,278.034,0.00016186,2.29e-05,0.0,0 STARLINK-4114,1 53162U 22083AG  23038.76364102  .00002290  00000-0  16186-3 0  9995,2 53162  53.2189 178.5970 0001392  82.0810 278.0340 15.08847697 32013,6917.857,95.437,540.685,538.759,0.0
53162.0,STARLINK-4114,PAYLOAD,2023-02-08 08:38:07,15.08833188,0.0001498,53.2177,175.923,90.7163,269.4001,-1.2134e-05,-4.81e-06,0.0,0 STARLINK-4114,1 53162U 22083AG  23039.35980924 -.00000481  00000-0 -12134-4 0  9999,2 53162  53.2177 175.9230 0001498  90.7163 269.4001 15.08833188 32102,6917.901,95.438,540.803,538.73,0.0
53162.0,STARLINK-4114,PAYLOAD,2023-02-08 13:24:16,15.08839831,0.0001728,53.2196,175.0328,91.9652,268.1538,3.2799e-05,2.34e-06,0.0,0 STARLINK-4114,1 53162U 22083AG  23039.55852705  .00000234  00000-0  32799-4 0  9999,2 53162  53.2196 175.0328 0001728  91.9652 268.1538 15.08839831 31509,6917.881,95.438,540.941,538.55,0.0
53162.0,STARLINK-4114,PAYLOAD,2023-02-08 16:35:02,15.08847406,0.0001691,53.2182,174.4385,97.0258,263.0926,-0.00014324,-2.568e-05,0.0,0 STARLINK-4114,1 53162U 22083AG  23039.69100330 -.00002568  00000-0 -14324-3 0  9991,2 53162  53.2182 174.4385 0001691  97.0258 263.0926 15.08847406 32152,6917.858,95.437,540.893,538.553,0.0
53162.0,STARLINK-4114,PAYLOAD,2023-02-09 02:07:22,15.08836974,0.0001528,53.2206,172.6518,75.3845,284.7316,1.5544e-05,-4.1e-07,0.0,0 STARLINK-4114,1 53162U 22083AG  23040.08845036 -.00000041  00000-0  15544-4 0  9994,2 53162  53.2206 172.6518 0001528  75.3845 284.7316 15.08836974 32215,6917.89,95.438,540.812,538.698,0.0
53162.0,STARLINK-4114,PAYLOAD,2023-02-09 08:28:54,15.08835206,0.0001566,53.2175,171.4646,70.1208,289.9953,-5.8751e-05,-1.223e-05,0.0,0 STARLINK-4114,1 53162U 22083AG  23040.35341322 -.00001223  00000-0 -58751-4 0  9994,2 53162  53.2175 171.4646 0001566  70.1208 289.9953 15.08835206 31622,6917.895,95.438,540.843,538.677,0.0
